IRIDIUM 155             
1 43573U 18061E   25296.10743670  .00000150  00000+0  46436-4 0  9992
2 43573  86.3994 155.7883 0002112  78.9359 281.2074 14.34216849379372
IRIDIUM 154             
1 43574U 18061F   25296.15817925  .00000385  00000+0  13027-3 0  9992
2 43574  86.3995 155.8883 0002132  79.0616 281.0820 14.34220300379436
IRIDIUM 163             
1 43575U 18061G   25296.13916207  .00000408  00000+0  13845-3 0  9998
2 43575  86.3994 155.8196 0002263  84.6654 275.4800 14.34220994379403
IRIDIUM 156             
1 43576U 18061H   25296.11377848  .00000212  00000+0  68701-4 0  9994
2 43576  86.3998 155.8370 0001968  78.1494 281.9923 14.34217268379399
IRIDIUM 164             
1 43577U 18061J   25296.16451892 -.00000063  00000+0 -29733-4 0  9990
2 43577  86.4001 155.8521 0001752  88.4600 271.6797 14.34216912379444
IRIDIUM 159             
1 43578U 18061K   25296.13280669 -.00000042  00000+0 -22049-4 0  9990
2 43578  86.3999 155.8074 0002048  88.6882 271.4549 14.34217132379400
IRIDIUM 180             
1 43922U 19002A   25295.36484602  .00000143  00000+0  43890-4 0  9993
2 43922  86.3920  93.0242 0002211  90.2092 269.9357 14.34218968354906
IRIDIUM 176             
1 43923U 19002B   25296.15559860  .00000625  00000+0  95247-4 0  9999
2 43923  86.6045  92.6711 0002190  72.9729 287.1728 14.72257139364375
IRIDIUM 168             
1 43924U 19002C   25295.98642190  .00000404  00000+0  13733-3 0  9993
2 43924  86.3923  92.8342 0002102  88.7054 271.4383 14.34217710354976
IRIDIUM 173             
1 43925U 19002D   25295.97373397  .00000133  00000+0  40476-4 0  9997
2 43925  86.3920  92.7386 0002233  87.4034 272.7418 14.34219065354956
IRIDIUM 169             
1 43926U 19002E   25296.06706370  .00000176  00000+0  51126-4 0  9991
2 43926  86.4194 124.3477 0002721  60.7503 299.3967 14.38609263356134
IRIDIUM 172             
1 43927U 19002F   25295.47901510  .00000146  00000+0  45036-4 0  9999
2 43927  86.3919  92.9529 0002263  93.1732 266.9723 14.34216328354895
IRIDIUM 175             
1 43928U 19002G   25296.01484414  .00001693  00000+0  26457-3 0  9993
2 43928  86.1538  37.9845 0001402  96.8588 263.2788 14.72250873364341
IRIDIUM 171             
1 43929U 19002H   25296.15767148 -.00000030  00000+0 -17637-4 0  9994
2 43929  86.3930  92.9495 0001649  89.8027 270.3357 14.34217343354988
IRIDIUM 170             
1 43930U 19002J   25296.16176933  .00000623  00000+0  94953-4 0  9995
2 43930  86.6045  92.6725 0002159  90.0610 270.0855 14.72258567364382
IRIDIUM 167             
1 43931U 19002K   25295.52341152 -.00000025  00000+0 -16168-4 0  9992
2 43931  86.3920  92.9548 0001643  81.7104 278.4278 14.34217266354895
IRIDIUM 181             
1 56726U 23068S   25295.37609946  .00000541  00000+0  15473-3 0  9994
2 56726  86.4534 156.1755 0001684  97.3921 262.7471 14.43312866128130
IRIDIUM 177             
1 56727U 23068T   25295.43251399  .00001834  00000+0  23802-3 0  9998
2 56727  86.1931  81.6963 0002293  85.5653 274.5830 14.80210908131195
IRIDIUM 174             
1 56728U 23068U   25295.46977010  .00000674  00000+0  10301-3 0  9998
2 56728  86.6053  93.0858 0002793  88.4830 271.6708 14.72260358131041
IRIDIUM 178             
1 56729U 23068V   25295.89483875  .00000716  00000+0  90729-4 0  9997
2 56729  86.6514 124.5488 0002021  81.8462 278.2989 14.80237419131264
IRIDIUM 179             
1 56730U 23068W   25295.55147140  .00000694  00000+0  87884-4 0  9997
2 56730  86.6768 132.9577 0001704  73.7893 286.3517 14.80232529131213
